CCSDS_OMM_VERS = 2.0
CREATION_DATE  = 
ORIGINATOR     = 

OBJECT_NAME    = 2026-023D
OBJECT_ID      = 2026-023D
CENTER_NAME    = EARTH
REF_FRAME      = TEME
TIME_SYSTEM    = UTC
MEAN_ELEMENT_THEORY = SGP/SGP4

EPOCH          = 2026-02-17T14:41:15.014976
MEAN_MOTION    = 15.22413338
ECCENTRICITY   = .00192084
INCLINATION    = 96.6467
RA_OF_ASC_NODE = 123.8861
ARG_OF_PERICENTER = 196.8324
MEAN_ANOMALY   = 163.2280

EPHEMERIS_TYPE = 0
CLASSIFICATION_TYPE = U
NORAD_CAT_ID   = 67677
ELEMENT_SET_NO = 999
REV_AT_EPOCH   = 179
BSTAR          = .44706749E-3
MEAN_MOTION_DOT = .1033E-3
MEAN_MOTION_DDOT = 0

CCSDS_OMM_VERS = 2.0
CREATION_DATE  = 
ORIGINATOR     = 

OBJECT_NAME    = 2026-023E
OBJECT_ID      = 2026-023E
CENTER_NAME    = EARTH
REF_FRAME      = TEME
TIME_SYSTEM    = UTC
MEAN_ELEMENT_THEORY = SGP/SGP4

EPOCH          = 2026-02-17T14:40:16.040064
MEAN_MOTION    = 15.22528227
ECCENTRICITY   = .00190377
INCLINATION    = 96.6360
RA_OF_ASC_NODE = 123.8863
ARG_OF_PERICENTER = 196.1900
MEAN_ANOMALY   = 163.8733

EPHEMERIS_TYPE = 0
CLASSIFICATION_TYPE = U
NORAD_CAT_ID   = 67678
ELEMENT_SET_NO = 999
REV_AT_EPOCH   = 179
BSTAR          = .63947381E-3
MEAN_MOTION_DOT = .14859E-3
MEAN_MOTION_DDOT = 0

CCSDS_OMM_VERS = 2.0
CREATION_DATE  = 
ORIGINATOR     = 

OBJECT_NAME    = 2026-023G
OBJECT_ID      = 2026-023G
CENTER_NAME    = EARTH
REF_FRAME      = TEME
TIME_SYSTEM    = UTC
MEAN_ELEMENT_THEORY = SGP/SGP4

EPOCH          = 2026-02-17T14:39:06.988320
MEAN_MOTION    = 15.22627365
ECCENTRICITY   = .0022579
INCLINATION    = 96.6296
RA_OF_ASC_NODE = 126.3803
ARG_OF_PERICENTER = 187.4026
MEAN_ANOMALY   = 172.6883

EPHEMERIS_TYPE = 0
CLASSIFICATION_TYPE = U
NORAD_CAT_ID   = 67680
ELEMENT_SET_NO = 999
REV_AT_EPOCH   = 178
BSTAR          = .61982311E-3
MEAN_MOTION_DOT = .14471E-3
MEAN_MOTION_DDOT = 0

CCSDS_OMM_VERS = 2.0
CREATION_DATE  = 
ORIGINATOR     = 

OBJECT_NAME    = 2026-023J
OBJECT_ID      = 2026-023J
CENTER_NAME    = EARTH
REF_FRAME      = TEME
TIME_SYSTEM    = UTC
MEAN_ELEMENT_THEORY = SGP/SGP4

EPOCH          = 2026-02-17T14:38:23.886816
MEAN_MOTION    = 15.22689136
ECCENTRICITY   = .00228062
INCLINATION    = 96.6396
RA_OF_ASC_NODE = 126.3952
ARG_OF_PERICENTER = 183.5632
MEAN_ANOMALY   = 176.5448

EPHEMERIS_TYPE = 0
CLASSIFICATION_TYPE = U
NORAD_CAT_ID   = 67682
ELEMENT_SET_NO = 999
REV_AT_EPOCH   = 178
BSTAR          = .52310281E-3
MEAN_MOTION_DOT = .12224E-3
MEAN_MOTION_DDOT = 0

CCSDS_OMM_VERS = 2.0
CREATION_DATE  = 
ORIGINATOR     = 

OBJECT_NAME    = ISS OBJECT XZ
OBJECT_ID      = 1998-067XZ
CENTER_NAME    = EARTH
REF_FRAME      = TEME
TIME_SYSTEM    = UTC
MEAN_ELEMENT_THEORY = SGP/SGP4

EPOCH          = 2026-02-17T13:26:20.764320
MEAN_MOTION    = 15.50177657
ECCENTRICITY   = .00104384
INCLINATION    = 51.6311
RA_OF_ASC_NODE = 171.7382
ARG_OF_PERICENTER = 120.3988
MEAN_ANOMALY   = 239.8034

EPHEMERIS_TYPE = 0
CLASSIFICATION_TYPE = U
NORAD_CAT_ID   = 67683
ELEMENT_SET_NO = 999
REV_AT_EPOCH   = 166
BSTAR          = .59632919E-3
MEAN_MOTION_DOT = .34002E-3
MEAN_MOTION_DDOT = 0

CCSDS_OMM_VERS = 2.0
CREATION_DATE  = 
ORIGINATOR     = 

OBJECT_NAME    = GXIBA-1
OBJECT_ID      = 1998-067YA
CENTER_NAME    = EARTH
REF_FRAME      = TEME
TIME_SYSTEM    = UTC
MEAN_ELEMENT_THEORY = SGP/SGP4

EPOCH          = 2026-02-17T13:18:50.345568
MEAN_MOTION    = 15.51206196
ECCENTRICITY   = .00120068
INCLINATION    = 51.6311
RA_OF_ASC_NODE = 171.7048
ARG_OF_PERICENTER = 113.2004
MEAN_ANOMALY   = 247.0252

EPHEMERIS_TYPE = 0
CLASSIFICATION_TYPE = U
NORAD_CAT_ID   = 67684
ELEMENT_SET_NO = 999
REV_AT_EPOCH   = 166
BSTAR          = .10040234E-2
MEAN_MOTION_DOT = .59962E-3
MEAN_MOTION_DDOT = 0

CCSDS_OMM_VERS = 2.0
CREATION_DATE  = 
ORIGINATOR     = 

OBJECT_NAME    = CORAL
OBJECT_ID      = 1998-067YB
CENTER_NAME    = EARTH
REF_FRAME      = TEME
TIME_SYSTEM    = UTC
MEAN_ELEMENT_THEORY = SGP/SGP4

EPOCH          = 2026-02-17T13:24:54.201888
MEAN_MOTION    = 15.50353125
ECCENTRICITY   = .00123329
INCLINATION    = 51.6309
RA_OF_ASC_NODE = 171.7324
ARG_OF_PERICENTER = 116.1515
MEAN_ANOMALY   = 244.0744

EPHEMERIS_TYPE = 0
CLASSIFICATION_TYPE = U
NORAD_CAT_ID   = 67685
ELEMENT_SET_NO = 999
REV_AT_EPOCH   = 166
BSTAR          = .6698999E-3
MEAN_MOTION_DOT = .3855E-3
MEAN_MOTION_DDOT = 0

CCSDS_OMM_VERS = 2.0
CREATION_DATE  = 
ORIGINATOR     = 

OBJECT_NAME    = ISS OBJECT YC
OBJECT_ID      = 1998-067YC
CENTER_NAME    = EARTH
REF_FRAME      = TEME
TIME_SYSTEM    = UTC
MEAN_ELEMENT_THEORY = SGP/SGP4

EPOCH          = 2026-02-17T13:23:32.568576
MEAN_MOTION    = 15.50561623
ECCENTRICITY   = .00077727
INCLINATION    = 51.6320
RA_OF_ASC_NODE = 171.7265
ARG_OF_PERICENTER = 88.8855
MEAN_ANOMALY   = 271.3025

EPHEMERIS_TYPE = 0
CLASSIFICATION_TYPE = U
NORAD_CAT_ID   = 67686
ELEMENT_SET_NO = 999
REV_AT_EPOCH   = 166
BSTAR          = .73145024E-3
MEAN_MOTION_DOT = .42395E-3
MEAN_MOTION_DDOT = 0

CCSDS_OMM_VERS = 2.0
CREATION_DATE  = 
ORIGINATOR     = 

OBJECT_NAME    = LEOPARD
OBJECT_ID      = 1998-067YD
CENTER_NAME    = EARTH
REF_FRAME      = TEME
TIME_SYSTEM    = UTC
MEAN_ELEMENT_THEORY = SGP/SGP4

EPOCH          = 2026-02-17T11:52:40.660320
MEAN_MOTION    = 15.50279822
ECCENTRICITY   = .00078442
INCLINATION    = 51.6314
RA_OF_ASC_NODE = 172.0549
ARG_OF_PERICENTER = 91.1853
MEAN_ANOMALY   = 269.0035

EPHEMERIS_TYPE = 0
CLASSIFICATION_TYPE = U
NORAD_CAT_ID   = 67687
ELEMENT_SET_NO = 999
REV_AT_EPOCH   = 157
BSTAR          = .76005041E-3
MEAN_MOTION_DOT = .43637E-3
MEAN_MOTION_DDOT = 0

CCSDS_OMM_VERS = 2.0
CREATION_DATE  = 
ORIGINATOR     = 

OBJECT_NAME    = ISS OBJECT YE
OBJECT_ID      = 1998-067YE
CENTER_NAME    = EARTH
REF_FRAME      = TEME
TIME_SYSTEM    = UTC
MEAN_ELEMENT_THEORY = SGP/SGP4

EPOCH          = 2026-02-17T13:24:03.854016
MEAN_MOTION    = 15.50467375
ECCENTRICITY   = .00077358
INCLINATION    = 51.6317
RA_OF_ASC_NODE = 171.7280
ARG_OF_PERICENTER = 90.1746
MEAN_ANOMALY   = 270.0129

EPHEMERIS_TYPE = 0
CLASSIFICATION_TYPE = U
NORAD_CAT_ID   = 67688
ELEMENT_SET_NO = 999
REV_AT_EPOCH   = 158
BSTAR          = .72976183E-3
MEAN_MOTION_DOT = .42152E-3
MEAN_MOTION_DDOT = 0

